{"type": "FeatureCollection", "features": [ {"type": "Feature", "properties": {"norad_id": 39546, "name": "COSMOS 2251 DEB", "group": "cosmos-2251-debris", "lat": -48.01014778122215, "lon": 103.69949692377315, "alt_km": 570.4165822350988, "timestamp": "2025-12-19T22:41:52.794168+00:00", "meta": {"OBJECT_NAME": "COSMOS 2251 DEB", "OBJECT_ID": "1993-036BUC", "EPOCH": "2025-12-16T03:12:27.285696", "MEAN_MOTION": 14.92150087, "ECCENTRICITY": 0.00441533, "INCLINATION": 73.9967, "RA_OF_ASC_NODE": 129.9626, "ARG_OF_PERICENTER": 289.5542, "MEAN_ANOMALY": 70.0875, "EPHEMERIS_TYPE": 0, "CLASSIFICATION_TYPE": "U", "NORAD_CAT_ID": 39546, "ELEMENT_SET_NO": 999, "REV_AT_EPOCH": 64487, "BSTAR": 0.001062699, "MEAN_MOTION_DOT": 0.00010998, "MEAN_MOTION_DDOT": 0}, "tle": {"line1": "1 39546U 93036BUC 25350.13364914  .00010998  00000+0  10627-2 0  9998", "line2": "2 39546  73.9967 129.9626 0044153 289.5542  70.0875 14.92150087644870"}}, "geometry": {"type": "Point", "coordinates": [103.69949692377315, -48.01014778122215]}}, {"type": "Feature", "properties": {"norad_id": 39547, "name": "COSMOS 2251 DEB", "group": "cosmos-2251-debris", "lat": -51.481957320818985, "lon": -155.2468340738589, "alt_km": 564.3236022171513, "timestamp": "2025-12-19T22:41:52.794178+00:00", "meta": {"OBJECT_NAME": "COSMOS 2251 DEB", "OBJECT_ID": "1993-036BUD", "EPOCH": "2025-12-19T07:21:14.962752", "MEAN_MOTION": 15.03732917, "ECCENTRICITY": 0.0005758, "INCLINATION": 74.0009, "RA_OF_ASC_NODE": 4.9325, "ARG_OF_PERICENTER": 3.3316, "MEAN_ANOMALY": 11.6145, "EPHEMERIS_TYPE": 0, "CLASSIFICATION_TYPE": "U", "NORAD_CAT_ID": 39547, "ELEMENT_SET_NO": 999, "REV_AT_EPOCH": 64124, "BSTAR": 0.0019087, "MEAN_MOTION_DOT": 0.0002626, "MEAN_MOTION_DDOT": 0}, "tle": {"line1": "1 39547U 93036BUD 25353.30642318  .00026260  00000+0  19087-2 0  9996", "line2": "2 39547  74.0009   4.9325 0005758   3.3316  11.6145 15.03732917641247"}}, "geometry": {"type": "Point", "coordinates": [-155.2468340738589, -51.481957320818985]}}, {"type": "Feature", "properties": {"norad_id": 39553, "name": "COSMOS 2251 DEB", "group": "cosmos-2251-debris", "lat": -53.83060592267636, "lon": 160.59689922722515, "alt_km": 1021.1137691513259, "timestamp": "2025-12-19T22:41:52.794188+00:00", "meta": {"OBJECT_NAME": "COSMOS 2251 DEB", "OBJECT_ID": "1993-036BUK", "EPOCH": "2025-12-19T04:26:08.787552", "MEAN_MOTION": 13.99893274, "ECCENTRICITY": 0.02023146, "INCLINATION": 74.0301, "RA_OF_ASC_NODE": 318.8543, "ARG_OF_PERICENTER": 93.0274, "MEAN_ANOMALY": 269.4029, "EPHEMERIS_TYPE": 0, "CLASSIFICATION_TYPE": "U", "NORAD_CAT_ID": 39553, "ELEMENT_SET_NO": 999, "REV_AT_EPOCH": 75707, "BSTAR": 0.00037697212, "MEAN_MOTION_DOT": 6.38e-06, "MEAN_MOTION_DDOT": 0}, "tle": {"line1": "1 39553U 93036BUK 25353.18482393  .00000638  00000+0  37697-3 0  9993", "line2": "2 39553  74.0301 318.8543 0202314  93.0274 269.4029 13.99893274757074"}}, "geometry": {"type": "Point", "coordinates": [160.59689922722515, -53.83060592267636]}}, {"type": "Feature", "properties": {"norad_id": 39554, "name": "COSMOS 2251 DEB", "group": "cosmos-2251-debris", "lat": -73.28406143607775, "lon": 142.3136398014791, "alt_km": 539.9434328356056, "timestamp": "2025-12-19T22:41:52.794198+00:00", "meta": {"OBJECT_NAME": "COSMOS 2251 DEB", "OBJECT_ID": "1993-036BUL", "EPOCH": "2025-12-10T06:12:03.924864", "MEAN_MOTION": 15.10130993, "ECCENTRICITY": 0.0002993, "INCLINATION": 74.0187, "RA_OF_ASC_NODE": 269.7383, "ARG_OF_PERICENTER": 74.7531, "MEAN_ANOMALY": 81.5927, "EPHEMERIS_TYPE": 0, "CLASSIFICATION_TYPE": "U", "NORAD_CAT_ID": 39554, "ELEMENT_SET_NO": 999, "REV_AT_EPOCH": 64347, "BSTAR": 0.0046896, "MEAN_MOTION_DOT": 0.000773, "MEAN_MOTION_DDOT": 0}, "tle": {"line1": "1 39554U 93036BUL 25344.25837876  .00077300  00000+0  46896-2 0  9992", "line2": "2 39554  74.0187 269.7383 0002993  74.7531  81.5927 15.10130993643471"}}, "geometry": {"type": "Point", "coordinates": [142.3136398014791, -73.28406143607775]}}, {"type": "Feature", "properties": {"norad_id": 39583, "name": "COSMOS 2251 DEB", "group": "cosmos-2251-debris", "lat": 69.4231812063195, "lon": -76.47659062628375, "alt_km": 685.8477376253104, "timestamp": "2025-12-19T22:41:52.794209+00:00", "meta": {"OBJECT_NAME": "COSMOS 2251 DEB", "OBJECT_ID": "1993-036BUN", "EPOCH": "2025-12-18T10:11:13.909920", "MEAN_MOTION": 14.60542257, "ECCENTRICITY": 0.01369227, "INCLINATION": 73.9324, "RA_OF_ASC_NODE": 236.2973, "ARG_OF_PERICENTER": 348.5451, "MEAN_ANOMALY": 11.2605, "EPHEMERIS_TYPE": 0, "CLASSIFICATION_TYPE": "U", "NORAD_CAT_ID": 39583, "ELEMENT_SET_NO": 999, "REV_AT_EPOCH": 61862, "BSTAR": 0.001412125, "MEAN_MOTION_DOT": 7.803e-05, "MEAN_MOTION_DDOT": 0}, "tle": {"line1": "1 39583U 93036BUN 25352.42446655  .00007803  00000+0  14121-2 0  9990", "line2": "2 39583  73.9324 236.2973 0136922 348.5451  11.2605 14.60542257618627"}}, "geometry": {"type": "Point", "coordinates": [-76.47659062628375, 69.4231812063195]}}, {"type": "Feature", "properties": {"norad_id": 39585, "name": "COSMOS 2251 DEB", "group": "cosmos-2251-debris", "lat": -31.895823988581835, "lon": 117.85830471776019, "alt_km": 748.2828888347476, "timestamp": "2025-12-19T22:41:52.794219+00:00", "meta": {"OBJECT_NAME": "COSMOS 2251 DEB", "OBJECT_ID": "1993-036BUQ", "EPOCH": "2025-12-17T13:45:47.587680", "MEAN_MOTION": 14.58681164, "ECCENTRICITY": 0.00655713, "INCLINATION": 74.0421, "RA_OF_ASC_NODE": 292.1145, "ARG_OF_PERICENTER": 51.6529, "MEAN_ANOMALY": 309.0503, "EPHEMERIS_TYPE": 0, "CLASSIFICATION_TYPE": "U", "NORAD_CAT_ID": 39585, "ELEMENT_SET_NO": 999, "REV_AT_EPOCH": 62591, "BSTAR": 0.00024435975, "MEAN_MOTION_DOT": 1.143e-05, "MEAN_MOTION_DDOT": 0}, "tle": {"line1": "1 39585U 93036BUQ 25351.57346745  .00001143  00000+0  24436-3 0  9998", "line2": "2 39585  74.0421 292.1145 0065571  51.6529 309.0503 14.58681164625913"}}, "geometry": {"type": "Point", "coordinates": [117.85830471776019, -31.895823988581835]}}, {"type": "Feature", "properties": {"norad_id": 39586, "name": "COSMOS 2251 DEB", "group": "cosmos-2251-debris", "lat": 57.571028968005876, "lon": 8.480730108302026, "alt_km": 861.8276051281109, "timestamp": "2025-12-19T22:41:52.794229+00:00", "meta": {"OBJECT_NAME": "COSMOS 2251 DEB", "OBJECT_ID": "1993-036BUR", "EPOCH": "2025-12-15T23:50:08.053728", "MEAN_MOTION": 14.21232237, "ECCENTRICITY": 0.01008868, "INCLINATION": 74.0082, "RA_OF_ASC_NODE": 222.4068, "ARG_OF_PERICENTER": 356.2296, "MEAN_ANOMALY": 66.1426, "EPHEMERIS_TYPE": 0, "CLASSIFICATION_TYPE": "U", "NORAD_CAT_ID": 39586, "ELEMENT_SET_NO": 999, "REV_AT_EPOCH": 61018, "BSTAR": 0.00043436803, "MEAN_MOTION_DOT": 9.7e-06, "MEAN_MOTION_DDOT": 0}, "tle": {"line1": "1 39586U 93036BUR 25349.99314877  .00000970  00000+0  43437-3 0  9992", "line2": "2 39586  74.0082 222.4068 0100886 356.2296  66.1426 14.21232237610182"}}, "geometry": {"type": "Point", "coordinates": [8.480730108302026, 57.571028968005876]}}, {"type": "Feature", "properties": {"norad_id": 39591, "name": "COSMOS 2251 DEB", "group": "cosmos-2251-debris", "lat": 0.17004108421397826, "lon": 53.34843589899882, "alt_km": 775.3185653498203, "timestamp": "2025-12-19T22:41:52.794239+00:00", "meta": {"OBJECT_NAME": "COSMOS 2251 DEB", "OBJECT_ID": "1993-036BUW", "EPOCH": "2025-12-19T09:05:27.177792", "MEAN_MOTION": 14.41824759, "ECCENTRICITY": 0.002936, "INCLINATION": 74.0196, "RA_OF_ASC_NODE": 234.4485, "ARG_OF_PERICENTER": 346.2019, "MEAN_ANOMALY": 131.9176, "EPHEMERIS_TYPE": 0, "CLASSIFICATION_TYPE": "U", "NORAD_CAT_ID": 39591, "ELEMENT_SET_NO": 999, "REV_AT_EPOCH": 61872, "BSTAR": 0.0001972, "MEAN_MOTION_DOT": 6.21e-06, "MEAN_MOTION_DDOT": 0}, "tle": {"line1": "1 39591U 93036BUW 25353.37878678  .00000621  00000+0  19720-3 0  9990", "line2": "2 39591  74.0196 234.4485 0029360 346.2019 131.9176 14.41824759618728"}}, "geometry": {"type": "Point", "coordinates": [53.34843589899882, 0.17004108421397826]}}, {"type": "Feature", "properties": {"norad_id": 40218, "name": "COSMOS 2251 DEB", "group": "cosmos-2251-debris", "lat": 63.43677006251113, "lon": -89.5794953960864, "alt_km": 751.0140995735674, "timestamp": "2025-12-19T22:41:52.794249+00:00", "meta": {"OBJECT_NAME": "COSMOS 2251 DEB", "OBJECT_ID": "1993-036BUX", "EPOCH": "2025-12-14T10:48:31.251744", "MEAN_MOTION": 14.41597705, "ECCENTRICITY": 0.00168728, "INCLINATION": 74.0298, "RA_OF_ASC_NODE": 245.6562, "ARG_OF_PERICENTER": 328.6, "MEAN_ANOMALY": 31.4147, "EPHEMERIS_TYPE": 0, "CLASSIFICATION_TYPE": "U", "NORAD_CAT_ID": 40218, "ELEMENT_SET_NO": 999, "REV_AT_EPOCH": 58886, "BSTAR": 0.00046023204, "MEAN_MOTION_DOT": 1.474e-05, "MEAN_MOTION_DDOT": 0}, "tle": {"line1": "1 40218U 93036BUX 25348.45036171  .00001474  00000+0  46023-3 0  9998", "line2": "2 40218  74.0298 245.6562 0016872 328.6000  31.4147 14.41597705588868"}}, "geometry": {"type": "Point", "coordinates": [-89.5794953960864, 63.43677006251113]}}, {"type": "Feature", "properties": {"norad_id": 40223, "name": "COSMOS 2251 DEB", "group": "cosmos-2251-debris", "lat": -33.38536021822699, "lon": -95.17445080415654, "alt_km": 554.7330616632962, "timestamp": "2025-12-19T22:41:52.794260+00:00", "meta": {"OBJECT_NAME": "COSMOS 2251 DEB", "OBJECT_ID": "1993-036BVC", "EPOCH": "2025-12-16T06:05:42.901728", "MEAN_MOTION": 15.04017245, "ECCENTRICITY": 0.00151313, "INCLINATION": 73.9375, "RA_OF_ASC_NODE": 81.4737, "ARG_OF_PERICENTER": 287.2028, "MEAN_ANOMALY": 105.0934, "EPHEMERIS_TYPE": 0, "CLASSIFICATION_TYPE": "U", "NORAD_CAT_ID": 40223, "ELEMENT_SET_NO": 999, "REV_AT_EPOCH": 59427, "BSTAR": 0.0031787319, "MEAN_MOTION_DOT": 0.00044299, "MEAN_MOTION_DDOT": 0}, "tle": {"line1": "1 40223U 93036BVC 25350.25396877  .00044299  00000+0  31787-2 0  9999", "line2": "2 40223  73.9375  81.4737 0015131 287.2028 105.0934 15.04017245594275"}}, "geometry": {"type": "Point", "coordinates": [-95.17445080415654, -33.38536021822699]}}]}